CZ-3B R/B               
1 64470U 25132A   25200.88880068 -.00000244  00000+0  00000+0 0  9998
2 64470   0.0534 245.5817 0001926  31.7606  72.7382  1.00271053   815
CHINASAT 9C             
1 64471U 25132B   25200.23954643  .00018108  00000+0  20448-2 0  9997
2 64471  27.7689  84.5073 7323456 197.0689 110.2951  2.24889088   648
STARLINK-34493          
1 64472U 25133A   25200.91668981  .00012116  00000+0  31223-3 0  9998
2 64472  53.1598 126.5415 0001493 124.4168  95.2526 15.39636853  5422
STARLINK-34492          
1 64473U 25133B   25201.25002315  .00068582  00000+0  17115-2 0  9991
2 64473  53.1601 124.9241 0001093  80.5737 211.6984 15.39578113  5478
STARLINK-34474          
1 64474U 25133C   25201.16668981  .00057942  00000+0  14495-2 0  9995
2 64474  53.1602 125.3126 0001102  78.5078 113.4875 15.39578652  5446
STARLINK-34523          
1 64475U 25133D   25201.25002315  .00083325  00000+0  20764-2 0  9999
2 64475  53.1600 124.8711 0001522  57.6818 260.3546 15.39531742  5452
STARLINK-34496          
1 64476U 25133E   25201.16668981  .00061152  00000+0  15307-2 0  9998
2 64476  53.1606 125.2598 0001503  56.4470 161.3239 15.39536795  5460
STARLINK-34375          
1 64477U 25133F   25201.16668981 -.01856294  00000+0 -47243-1 0  9994
2 64477  53.1604 125.2200 0000798  90.9917 147.3732 15.42292058  5460
STARLINK-34490          
1 64478U 25133G   25201.16668981 -.01552014  00000+0 -36766-1 0  9996
2 64478  53.1606 125.1826 0001612  78.9918 176.9558 15.44339876  5465
STARLINK-34528          
1 64479U 25133H   25200.91668981 -.01594386  00000+0 -39621-1 0  9990
2 64479  53.1600 126.3962 0001297  97.2693 193.9035 15.43026681  5406
STARLINK-34518          
1 64480U 25133J   25201.16668981 -.01540214  00000+0 -36472-1 0  9992
2 64480  53.1608 125.1784 0001590  80.3402 177.4992 15.44327644  5304
STARLINK-34526          
1 64481U 25133K   25200.92437105  .00385879  00000+0  60413-2 0  9992
2 64481  53.1598 126.3107 0020099 248.8999 110.9863 15.51666387  5310
STARLINK-34527          
1 64482U 25133L   25200.14996637  .00044605  00000+0  80464-3 0  9995
2 64482  53.1601 130.0092 0001005  37.1039 323.0039 15.49338776  5318
STARLINK-34420          
1 64483U 25133M   25200.08511116  .00052883  00000+0  95157-3 0  9996
2 64483  53.1608 130.3055 0001024 119.4249 240.6862 15.49335648  5308
STARLINK-34509          
1 64484U 25133N   25200.08477169  .00066016  00000+0  11840-2 0  9995
2 64484  53.1597 130.3116 0001019  61.2178 298.8934 15.49333238  5301
STARLINK-34409          
1 64485U 25133P   25200.53598530  .00052078  00000+0  93759-3 0  9995
2 64485  53.1601 128.1485 0001292  94.7631 265.3526 15.49327151  5370
STARLINK-34520          
1 64486U 25133Q   25200.53564317  .00044935  00000+0  81073-3 0  9991
2 64486  53.1587 128.1489 0001585  69.6210 290.4969 15.49330141  5370
STARLINK-34477          
1 64487U 25133R   25200.21277431  .00054976  00000+0  98892-3 0  9998
2 64487  53.1598 129.6867 0001013  78.4378 281.6745 15.49327758  5327
STARLINK-34217          
1 64488U 25133S   25200.21241460  .00047396  00000+0  85413-3 0  9995
2 64488  53.1602 129.6871 0001488  63.6809 296.4353 15.49340043  5219
STARLINK-34307          
1 64489U 25133T   25200.79264396  .00072995  00000+0  13062-2 0  9995
2 64489  53.1599 126.9067 0001236  76.9678 283.1469 15.49353893  5391
STARLINK-34505          
1 64490U 25133U   25200.79230103  .00054385  00000+0  97765-3 0  9992
2 64490  53.1612 126.9042 0001709  91.3305 268.7900 15.49350570  5393
STARLINK-34530          
1 64491U 25133V   25200.66668981  .00089987  00000+0  16107-2 0  9994
2 64491  53.1597 127.4984 0001171  96.3347 284.7273 15.49251264  5448
STARLINK-34522          
1 64492U 25133W   25200.91668981  .00010678  00000+0  19986-3 0  9993
2 64492  53.1601 126.3001 0001144  92.8486 245.2798 15.49298142  5426
STARLINK-34462          
1 64493U 25133X   25200.66668981  .00090942  00000+0  16274-2 0  9994
2 64493  53.1599 127.4901 0001130  93.7045 291.1881 15.49253382  5385
STARLINK-34226          
1 64494U 25133Y   25200.91668981  .00011832  00000+0  22053-3 0  9997
2 64494  53.1600 126.2923 0001233  90.0285 251.9283 15.49300838  5266
STARLINK-34364          
1 64495U 25133Z   25200.79023974  .00046155  00000+0  83208-3 0  9996
2 64495  53.1603 126.8898 0001861  87.7634 272.3588 15.49340513  5411
STARLINK-34268          
1 64496U 25133AA  25200.53254806  .00060436  00000+0  10855-2 0  9994
2 64496  53.1601 128.1249 0001086  91.9072 268.2061 15.49330221  5377
STARLINK-34363          
1 64497U 25133AB  25200.53186018  .00053319  00000+0  95961-3 0  9998
2 64497  53.1607 128.1203 0000961  89.3444 270.7676 15.49326648  5377
STARLINK-34427          
1 64498U 25133AC  25200.78955270  .00074124  00000+0  13274-2 0  9993
2 64498  53.1605 126.8868 0001360  75.8089 284.3071 15.49325698  5416
KUIPER-00039            
1 64500U 25134A   25200.30474672  .00016814  00000+0  50047-3 0  9990
2 64500  51.8667 206.4679 0007441 205.9221 154.1392 15.34803298  5217
KUIPER-00040            
1 64501U 25134B   25201.16668981 -.00874164  00000+0 -31200-1 0  9994
2 64501  51.8665 202.5432 0010768 217.6637 121.8513 15.30958960  4888
KUIPER-00041            
1 64502U 25134C   25201.16668981 -.00038027  00000+0 -13811-2 0  9994
2 64502  51.8700 202.5466 0008623 218.4637 100.5681 15.27618292  4878
KUIPER-00042            
1 64503U 25134D   25200.30980948  .00010425  00000+0  31752-3 0  9995
2 64503  51.8641 206.4972 0008636 207.2235 152.8299 15.34524966  5218
KUIPER-00043            
1 64504U 25134E   25200.43624843  .00021891  00000+0  64941-3 0  9994
2 64504  51.8684 205.8533 0007942 202.1456 157.9187 15.34721343  5232
KUIPER-00044            
1 64505U 25134F   25201.16668981 -.00896523  00000+0 -35378-1 0  9991
2 64505  51.8666 202.5855 0010670 210.8864 101.2555 15.27794438  4872
KUIPER-00046            
1 64506U 25134G   25200.31077586  .00009783  00000+0  29891-3 0  9990
2 64506  51.8658 206.5057 0009491 205.8041 154.2472 15.34493984  5217
KUIPER-00047            
1 64507U 25134H   25200.70701542  .00016987  00000+0  51668-3 0  9991
2 64507  51.8613 204.6517 0010104 220.4682 139.5552 15.34090306  5278
KUIPER-00048            
1 64508U 25134J   25200.73902649  .00023146  00000+0  65602-3 0  9994
2 64508  51.8760 204.1466 0002642 193.4859 166.6057 15.36143862  5283
KUIPER-00049            
1 64509U 25134K   25200.29907389  .00020814  00000+0  60904-3 0  9991
2 64509  51.8704 206.4383 0006737 199.5255 160.5474 15.35195701  5195
KUIPER-00050            
1 64510U 25134L   25200.30144872  .00020875  00000+0  61368-3 0  9997
2 64510  51.8714 206.4554 0007364 200.1535 159.9161 15.35042907  5212
KUIPER-00051            
1 64511U 25134M   25200.42367469 -.00000590  00000+0 -58764-5 0  9992
2 64511  51.8727 205.7789 0005268 192.7300 167.3554 15.35401665  5237
KUIPER-00052            
1 64512U 25134N   25199.04127448 -.00143739  00000+0 -38936-2 0  9998
2 64512  51.8758 212.2683 0004898 196.0169 164.0664 15.37613806  5023
KUIPER-00053            
1 64513U 25134P   25200.73450864  .00018691  00000+0  52952-3 0  9990
2 64513  51.8771 204.1154 0001818 182.2586 177.8392 15.36299462  5286
KUIPER-00054            
1 64514U 25134Q   25200.73801330  .00021624  00000+0  61362-3 0  9994
2 64514  51.8753 204.1384 0002859 177.3225 182.7777 15.36149282  5223
KUIPER-00055            
1 64515U 25134R   25200.72702620  .00021219  00000+0  59094-3 0  9995
2 64515  51.8775 204.0686 0000249  71.2674 288.8340 15.36748132  5282
KUIPER-00056            
1 64516U 25134S   25200.74151971  .00019523  00000+0  56028-3 0  9994
2 64516  51.8743 204.1591 0003415 188.5197 171.5732 15.35861923  5280
KUIPER-00057            
1 64517U 25134T   25200.29965140  .00025147  00000+0  73789-3 0  9998
2 64517  51.8692 206.4407 0006592 196.0066 164.0712 15.34991593  5217
KUIPER-00058            
1 64518U 25134U   25200.29195046  .00025795  00000+0  74262-3 0  9995
2 64518  51.8717 206.3945 0004425 198.9206 161.1617 15.35585698  4758
KUIPER-00059            
1 64519U 25134V   25200.27325317  .00018960  00000+0  52967-3 0  9994
2 64519  51.8786 206.2727 0001189 115.5513 244.5596 15.36727555  4744
KUIPER-00060            
1 64520U 25134W   25200.27712847  .00020635  00000+0  58024-3 0  9996
2 64520  51.8769 206.3007 0001984 142.6890 217.4234 15.36466074  4756
KUIPER-00061            
1 64521U 25134X   25200.29479540  .00014139  00000+0  41588-3 0  9998
2 64521  51.8731 206.4133 0005164 200.3275 159.7506 15.35335573  4758
KUIPER-00062            
1 64522U 25134Y   25200.74481825  .00020551  00000+0  59255-3 0  9993
2 64522  51.8747 204.1842 0004304 194.9968 165.0891 15.35677269  5287
KUIPER-00063            
1 64523U 25134Z   25200.73593974  .00019130  00000+0  54271-3 0  9996
2 64523  51.8756 204.1271 0002149 165.5282 194.5766 15.36238796  5289
KUIPER-00064            
1 64524U 25134AA  25200.72656686  .00025906  00000+0  71635-3 0  9997
2 64524  51.8768 204.0650 0001426 104.8927 255.2218 15.36849870  5280
KUIPER-00065            
1 64525U 25134AB  25200.43790087  .00018793  00000+0  56104-3 0  9990
2 64525  51.8696 205.8653 0008237 204.6897 155.3695 15.34622282  5222
KUIPER-00066            
1 64526U 25134AC  25200.33336806  .00010164  00000+0  29075-3 0  9996
2 64526  51.8765 206.0140 0001472 119.3946 200.4207 15.36559983  4752
2025-135A               
1 64528U 25135A   25200.86036755  .00006188  00000+0  31694-3 0  9998
2 64528  97.4395 314.9194 0004328 260.9042  99.1702 15.16941340  4382
2025-135B               
1 64529U 25135B   25200.86035941  .00005446  00000+0  27965-3 0  9997
2 64529  97.4496 314.9510 0004079 240.3560 119.7268 15.16905603  4385
2025-135C               
1 64530U 25135C   25200.85866792  .00007528  00000+0  38309-3 0  9991
2 64530  97.4391 314.9203 0004128 262.0350  98.0415 15.17096255  4381
